{"type":"FeatureCollection","features":[{"type":"Feature","geometry":{"type":"Point","coordinates":[-71.21574,46.80775]},"properties":{"address":"10","latitude":"46.80775","longitude":"-71.21574","name":"Parc de la Francophonie","capacity":"36","operator":"àVélo"}}]}
{"type":"FeatureCollection","features":[{"type":"Feature","geometry":{"type":"Point","coordinates":[-71.23407,46.82999]},"properties":{"address":"103","latitude":"46.82999","longitude":"-71.23407","name":"Benoît-XV / 16e Rue","capacity":"20","operator":"àVélo"}}]}
{"type":"FeatureCollection","features":[{"type":"Feature","geometry":{"type":"Point","coordinates":[-71.23717,46.83691]},"properties":{"address":"104","latitude":"46.83691","longitude":"-71.23717","name":"26e Rue / 25e Rue","capacity":"16","operator":"àVélo"}}]}
{"type":"FeatureCollection","features":[{"type":"Feature","geometry":{"type":"Point","coordinates":[-71.22207,46.83992]},"properties":{"address":"105","latitude":"46.83992","longitude":"-71.22207","name":"Église de Saint-Pascal-de-Maizerets","capacity":"20","operator":"àVélo"}}]}
{"type":"FeatureCollection","features":[{"type":"Feature","geometry":{"type":"Point","coordinates":[-71.22582,46.80379]},"properties":{"address":"11","latitude":"46.80379","longitude":"-71.22582","name":"Fraser / Cartier","capacity":"28","operator":"àVélo"}}]}
{"type":"FeatureCollection","features":[{"type":"Feature","geometry":{"type":"Point","coordinates":[-71.28095,46.78615]},"properties":{"address":"111","latitude":"46.78615","longitude":"-71.28095","name":"Sainte-Foy / Nérée-Tremblay","capacity":"16","operator":"àVélo"}}]}
{"type":"FeatureCollection","features":[{"type":"Feature","geometry":{"type":"Point","coordinates":[-71.28115,46.77221]},"properties":{"address":"114","latitude":"46.77221","longitude":"-71.28115","name":"Place Ste-Foy","capacity":"22","operator":"àVélo"}}]}
{"type":"FeatureCollection","features":[{"type":"Feature","geometry":{"type":"Point","coordinates":[-71.28314,46.77167]},"properties":{"address":"115","latitude":"46.77167","longitude":"-71.28314","name":"Laurier Québec","capacity":"22","operator":"àVélo"}}]}
{"type":"FeatureCollection","features":[{"type":"Feature","geometry":{"type":"Point","coordinates":[-71.24585,46.83925]},"properties":{"address":"121","latitude":"46.83925","longitude":"-71.24585","name":"Des Saules E. / 1re Avenue","capacity":"16","operator":"àVélo"}}]}
{"type":"FeatureCollection","features":[{"type":"Feature","geometry":{"type":"Point","coordinates":[-71.24114,46.83755]},"properties":{"address":"131","latitude":"46.83755","longitude":"-71.24114","name":"Parc Gérard-Marchand","capacity":"20","operator":"àVélo"}}]}
{"type":"FeatureCollection","features":[{"type":"Feature","geometry":{"type":"Point","coordinates":[-71.24956,46.82028]},"properties":{"address":"133","latitude":"46.82028","longitude":"-71.24956","name":"Fleur-de-Lys / Wilfrid-Hamel","capacity":"56","operator":"àVélo"}}]}
{"type":"FeatureCollection","features":[{"type":"Feature","geometry":{"type":"Point","coordinates":[-71.23916,46.82809]},"properties":{"address":"136","latitude":"46.82809","longitude":"-71.23916","name":"D'Assise / Ozanam","capacity":"20","operator":"àVélo"}}]}
{"type":"FeatureCollection","features":[{"type":"Feature","geometry":{"type":"Point","coordinates":[-71.25832,46.79332]},"properties":{"address":"14","latitude":"46.79332","longitude":"-71.25832","name":"Eymard / Sainte-Foy","capacity":"16","operator":"àVélo"}}]}
{"type":"FeatureCollection","features":[{"type":"Feature","geometry":{"type":"Point","coordinates":[-71.27235,46.78853]},"properties":{"address":"140","latitude":"46.78853","longitude":"-71.27235","name":"De Belmont / Sainte-Foy","capacity":"20","operator":"àVélo"}}]}
{"type":"FeatureCollection","features":[{"type":"Feature","geometry":{"type":"Point","coordinates":[-71.25263,46.79135]},"properties":{"address":"15","latitude":"46.79135","longitude":"-71.25263","name":"De Callières / Marguerite-Bourgeoys","capacity":"16","operator":"àVélo"}}]}
{"type":"FeatureCollection","features":[{"type":"Feature","geometry":{"type":"Point","coordinates":[-71.22095,46.8027]},"properties":{"address":"162","latitude":"46.8027","longitude":"-71.22095","name":"Wilfrid-Laurier / Galipeault","capacity":"16","operator":"àVélo"}}]}
{"type":"FeatureCollection","features":[{"type":"Feature","geometry":{"type":"Point","coordinates":[-71.25654,46.78852]},"properties":{"address":"167","latitude":"46.78852","longitude":"-71.25654","name":"Gérard-Morisset / René-Lévesque O.","capacity":"20","operator":"àVélo"}}]}
{"type":"FeatureCollection","features":[{"type":"Feature","geometry":{"type":"Point","coordinates":[-71.21532,46.81815]},"properties":{"address":"170","latitude":"46.81815","longitude":"-71.21532","name":"SAAQ - Édifice Jean-Lesage","capacity":"20","operator":"àVélo"}}]}
{"type":"FeatureCollection","features":[{"type":"Feature","geometry":{"type":"Point","coordinates":[-71.24217,46.81232]},"properties":{"address":"18","latitude":"46.81232","longitude":"-71.24217","name":"Patro Laval","capacity":"20","operator":"àVélo"}}]}
{"type":"FeatureCollection","features":[{"type":"Feature","geometry":{"type":"Point","coordinates":[-71.22855,46.82513]},"properties":{"address":"2","latitude":"46.82513","longitude":"-71.22855","name":"3e Avenue / 8e Rue","capacity":"24","operator":"àVélo"}}]}
{"type":"FeatureCollection","features":[{"type":"Feature","geometry":{"type":"Point","coordinates":[-71.24344,46.79514]},"properties":{"address":"20","latitude":"46.79514","longitude":"-71.24344","name":"Bibliothèque Collège-des-Jésuites","capacity":"16","operator":"àVélo"}}]}
{"type":"FeatureCollection","features":[{"type":"Feature","geometry":{"type":"Point","coordinates":[-71.23947,46.79869]},"properties":{"address":"21","latitude":"46.79869","longitude":"-71.23947","name":"Père-Marquette / Des Braves","capacity":"24","operator":"àVélo"}}]}
{"type":"FeatureCollection","features":[{"type":"Feature","geometry":{"type":"Point","coordinates":[-71.23913,46.80132]},"properties":{"address":"22","latitude":"46.80132","longitude":"-71.23913","name":"Parc des Braves","capacity":"16","operator":"àVélo"}}]}
{"type":"FeatureCollection","features":[{"type":"Feature","geometry":{"type":"Point","coordinates":[-71.2323,46.80298]},"properties":{"address":"23","latitude":"46.80298","longitude":"-71.2323","name":"Père-Marquette / De Manrèse","capacity":"24","operator":"àVélo"}}]}
{"type":"FeatureCollection","features":[{"type":"Feature","geometry":{"type":"Point","coordinates":[-71.22687,46.80619]},"properties":{"address":"24","latitude":"46.80619","longitude":"-71.22687","name":"Parc Lockwell","capacity":"24","operator":"àVélo"}}]}
{"type":"FeatureCollection","features":[{"type":"Feature","geometry":{"type":"Point","coordinates":[-71.22108,46.80629]},"properties":{"address":"26","latitude":"46.80629","longitude":"-71.22108","name":"Grand Théâtre de Québec","capacity":"34","operator":"àVélo"}}]}
{"type":"FeatureCollection","features":[{"type":"Feature","geometry":{"type":"Point","coordinates":[-71.20125,46.81478]},"properties":{"address":"29","latitude":"46.81478","longitude":"-71.20125","name":"Place des Canotiers","capacity":"32","operator":"àVélo"}}]}
{"type":"FeatureCollection","features":[{"type":"Feature","geometry":{"type":"Point","coordinates":[-71.21287,46.81748]},"properties":{"address":"3","latitude":"46.81748","longitude":"-71.21287","name":"Gare du Palais","capacity":"16","operator":"àVélo"}}]}
{"type":"FeatureCollection","features":[{"type":"Feature","geometry":{"type":"Point","coordinates":[-71.20874,46.81765]},"properties":{"address":"30","latitude":"46.81765","longitude":"-71.20874","name":"Bassin Louise","capacity":"24","operator":"àVélo"}}]}
{"type":"FeatureCollection","features":[{"type":"Feature","geometry":{"type":"Point","coordinates":[-71.219,46.81788]},"properties":{"address":"32","latitude":"46.81788","longitude":"-71.219","name":"Parc John-Munn","capacity":"28","operator":"àVélo"}}]}
{"type":"FeatureCollection","features":[{"type":"Feature","geometry":{"type":"Point","coordinates":[-71.22872,46.81289]},"properties":{"address":"34","latitude":"46.81289","longitude":"-71.22872","name":"Saint-Joseph E. / Caron","capacity":"20","operator":"àVélo"}}]}
{"type":"FeatureCollection","features":[{"type":"Feature","geometry":{"type":"Point","coordinates":[-71.2361,46.80701]},"properties":{"address":"35","latitude":"46.80701","longitude":"-71.2361","name":"Place Roger-Lemelin","capacity":"20","operator":"àVélo"}}]}
{"type":"FeatureCollection","features":[{"type":"Feature","geometry":{"type":"Point","coordinates":[-71.23544,46.81506]},"properties":{"address":"36","latitude":"46.81506","longitude":"-71.23544","name":"Parc Victoria - S.-Napoléon-Parent","capacity":"24","operator":"àVélo"}}]}
{"type":"FeatureCollection","features":[{"type":"Feature","geometry":{"type":"Point","coordinates":[-71.22555,46.8221]},"properties":{"address":"38","latitude":"46.8221","longitude":"-71.22555","name":"3e Rue / 3e Avenue","capacity":"24","operator":"àVélo"}}]}
{"type":"FeatureCollection","features":[{"type":"Feature","geometry":{"type":"Point","coordinates":[-71.22838,46.83056]},"properties":{"address":"40","latitude":"46.83056","longitude":"-71.22838","name":"Cégep Limoilou - Limoilou","capacity":"20","operator":"àVélo"}}]}
{"type":"FeatureCollection","features":[{"type":"Feature","geometry":{"type":"Point","coordinates":[-71.23476,46.82498]},"properties":{"address":"41","latitude":"46.82498","longitude":"-71.23476","name":"Parc de l'Anse-à-Cartier","capacity":"23","operator":"àVélo"}}]}
{"type":"FeatureCollection","features":[{"type":"Feature","geometry":{"type":"Point","coordinates":[-71.24407,46.82943]},"properties":{"address":"42","latitude":"46.82943","longitude":"-71.24407","name":"ExpoCité - Grand Marché","capacity":"16","operator":"àVélo"}}]}
{"type":"FeatureCollection","features":[{"type":"Feature","geometry":{"type":"Point","coordinates":[-71.22041,46.8124]},"properties":{"address":"48","latitude":"46.8124","longitude":"-71.22041","name":"Lavigueur / Sainte-Geneviève","capacity":"16","operator":"àVélo"}}]}
{"type":"FeatureCollection","features":[{"type":"Feature","geometry":{"type":"Point","coordinates":[-71.20866,46.81315]},"properties":{"address":"5","latitude":"46.81315","longitude":"-71.20866","name":"Hôtel de ville","capacity":"24","operator":"àVélo"}}]}
{"type":"FeatureCollection","features":[{"type":"Feature","geometry":{"type":"Point","coordinates":[-71.2354,46.80107]},"properties":{"address":"50","latitude":"46.80107","longitude":"-71.2354","name":"Brown / Père-Marquette","capacity":"24","operator":"àVélo"}}]}
{"type":"FeatureCollection","features":[{"type":"Feature","geometry":{"type":"Point","coordinates":[-71.24431,46.79751]},"properties":{"address":"51","latitude":"46.79751","longitude":"-71.24431","name":"Raymond-Casgrain / Cardinal-Rouleau","capacity":"20","operator":"àVélo"}}]}
{"type":"FeatureCollection","features":[{"type":"Feature","geometry":{"type":"Point","coordinates":[-71.25823,46.78659]},"properties":{"address":"56","latitude":"46.78659","longitude":"-71.25823","name":"Parc Anet-Gomin","capacity":"16","operator":"àVélo"}}]}
{"type":"FeatureCollection","features":[{"type":"Feature","geometry":{"type":"Point","coordinates":[-71.26477,46.78938]},"properties":{"address":"57","latitude":"46.78938","longitude":"-71.26477","name":"Hélène-Boullé / Du Bon-Air","capacity":"20","operator":"àVélo"}}]}
{"type":"FeatureCollection","features":[{"type":"Feature","geometry":{"type":"Point","coordinates":[-71.2664,46.78737]},"properties":{"address":"58","latitude":"46.78737","longitude":"-71.2664","name":"Parc Myrand","capacity":"24","operator":"àVélo"}}]}
{"type":"FeatureCollection","features":[{"type":"Feature","geometry":{"type":"Point","coordinates":[-71.2249,46.81434]},"properties":{"address":"6","latitude":"46.81434","longitude":"-71.2249","name":"Place Jacques-Cartier","capacity":"34","operator":"àVélo"}}]}
{"type":"FeatureCollection","features":[{"type":"Feature","geometry":{"type":"Point","coordinates":[-71.27044,46.77878]},"properties":{"address":"61","latitude":"46.77878","longitude":"-71.27044","name":"ULaval - Alphonse-Desjardins","capacity":"24","operator":"àVélo"}}]}
{"type":"FeatureCollection","features":[{"type":"Feature","geometry":{"type":"Point","coordinates":[-71.27606,46.78332]},"properties":{"address":"62","latitude":"46.78332","longitude":"-71.27606","name":"ULaval - PEPS","capacity":"32","operator":"àVélo"}}]}
{"type":"FeatureCollection","features":[{"type":"Feature","geometry":{"type":"Point","coordinates":[-71.28529,46.78612]},"properties":{"address":"64","latitude":"46.78612","longitude":"-71.28529","name":"Cégep de Sainte-Foy","capacity":"24","operator":"àVélo"}}]}
{"type":"FeatureCollection","features":[{"type":"Feature","geometry":{"type":"Point","coordinates":[-71.24417,46.8076]},"properties":{"address":"67","latitude":"46.8076","longitude":"-71.24417","name":"Raoul-Jobin / Marie-de-l'Incarnation","capacity":"20","operator":"àVélo"}}]}
{"type":"FeatureCollection","features":[{"type":"Feature","geometry":{"type":"Point","coordinates":[-71.23171,46.80985]},"properties":{"address":"69","latitude":"46.80985","longitude":"-71.23171","name":"Signaï / Christophe-Colomb","capacity":"24","operator":"àVélo"}}]}
{"type":"FeatureCollection","features":[{"type":"Feature","geometry":{"type":"Point","coordinates":[-71.24077,46.81734]},"properties":{"address":"70","latitude":"46.81734","longitude":"-71.24077","name":"Bourdages / Monseigneur-Plessis","capacity":"20","operator":"àVélo"}}]}
{"type":"FeatureCollection","features":[{"type":"Feature","geometry":{"type":"Point","coordinates":[-71.23071,46.82706]},"properties":{"address":"72","latitude":"46.82706","longitude":"-71.23071","name":"11e Rue / 3e Avenue","capacity":"20","operator":"àVélo"}}]}
{"type":"FeatureCollection","features":[{"type":"Feature","geometry":{"type":"Point","coordinates":[-71.23202,46.84097]},"properties":{"address":"75","latitude":"46.84097","longitude":"-71.23202","name":"Perrault / 24e Rue","capacity":"20","operator":"àVélo"}}]}
{"type":"FeatureCollection","features":[{"type":"Feature","geometry":{"type":"Point","coordinates":[-71.22501,46.84275]},"properties":{"address":"77","latitude":"46.84275","longitude":"-71.22501","name":"Parc Bardy","capacity":"24","operator":"àVélo"}}]}
{"type":"FeatureCollection","features":[{"type":"Feature","geometry":{"type":"Point","coordinates":[-71.22124,46.83404]},"properties":{"address":"78","latitude":"46.83404","longitude":"-71.22124","name":"De la Trinité / De Villebon","capacity":"16","operator":"àVélo"}}]}
{"type":"FeatureCollection","features":[{"type":"Feature","geometry":{"type":"Point","coordinates":[-71.2161,46.83656]},"properties":{"address":"79","latitude":"46.83656","longitude":"-71.2161","name":"Domaine de Maizerets","capacity":"20","operator":"àVélo"}}]}
{"type":"FeatureCollection","features":[{"type":"Feature","geometry":{"type":"Point","coordinates":[-71.24747,46.83486]},"properties":{"address":"88","latitude":"46.83486","longitude":"-71.24747","name":"Des Bouleaux O. / Du Colisée","capacity":"16","operator":"àVélo"}}]}
{"type":"FeatureCollection","features":[{"type":"Feature","geometry":{"type":"Point","coordinates":[-71.26789,46.79148]},"properties":{"address":"89","latitude":"46.79148","longitude":"-71.26789","name":"De la Place Philippe / Richer","capacity":"20","operator":"àVélo"}}]}
{"type":"FeatureCollection","features":[{"type":"Feature","geometry":{"type":"Point","coordinates":[-71.22242,46.809]},"properties":{"address":"9","latitude":"46.809","longitude":"-71.22242","name":"Église Saint-Jean-Baptiste","capacity":"28","operator":"àVélo"}}]}
{"type":"FeatureCollection","features":[{"type":"Feature","geometry":{"type":"Point","coordinates":[-71.23201,46.83436]},"properties":{"address":"94","latitude":"46.83436","longitude":"-71.23201","name":"CFP de Limoilou","capacity":"16","operator":"àVélo"}}]}